{
  "type": "FeatureCollection",
  "features": [
    {
      "type": "Feature",
      "properties": {
        "norad_id": 66338,
        "name": "STARLINK-35477",
        "group": "last-30-days",
        "lat": 24.529636168209205,
        "lon": 179.9443586840302,
        "alt_km": 438.4965316936368,
        "timestamp": "2025-12-05T04:52:14.140403+00:00",
        "meta_object_name": "STARLINK-35477",
        "meta_object_id": "2025-253V",
        "meta_epoch": "2025-12-03T05:35:16.634688",
        "meta_mean_motion": 15.40809844,
        "meta_eccentricity": 5.96e-05,
        "meta_inclination": 43.0004,
        "meta_ra_of_asc_node": 40.627,
        "meta_arg_of_pericenter": 180.5282,
        "meta_mean_anomaly": 179.5573,
        "meta_ephemeris_type": 0,
        "meta_classification_type": "U",
        "meta_norad_cat_id": 66338,
        "meta_element_set_no": 999,
        "meta_rev_at_epoch": 545,
        "meta_bstar": 0.0022359,
        "meta_mean_motion_dot": 0.00094607,
        "meta_mean_motion_ddot": 0,
        "tle_line1": "1 66338U 25253V   25337.23283142  .00094607  00000+0  22359-2 0  9996",
        "tle_line2": "2 66338  43.0004  40.6270 0000596 180.5282 179.5573 15.40809844  5458"
      },
      "geometry": {
        "type": "Point",
        "coordinates": [
          179.9443586840302,
          24.529636168209205
        ]
      }
    },
    {
      "type": "Feature",
      "properties": {
        "norad_id": 66339,
        "name": "STARLINK-35443",
        "group": "last-30-days",
        "lat": -39.975217446693534,
        "lon": -35.20074214273671,
        "alt_km": 446.20997178846847,
        "timestamp": "2025-12-05T04:52:14.140415+00:00",
        "meta_object_name": "STARLINK-35443",
        "meta_object_id": "2025-253W",
        "meta_epoch": "2025-12-04T18:00:02.000160",
        "meta_mean_motion": 15.40671595,
        "meta_eccentricity": 0.000203,
        "meta_inclination": 43.0006,
        "meta_ra_of_asc_node": 31.5222,
        "meta_arg_of_pericenter": 257.0045,
        "meta_mean_anomaly": 37.5137,
        "meta_ephemeris_type": 0,
        "meta_classification_type": "U",
        "meta_norad_cat_id": 66339,
        "meta_element_set_no": 999,
        "meta_rev_at_epoch": 569,
        "meta_bstar": -0.00035923,
        "meta_mean_motion_dot": -0.00015266,
        "meta_mean_motion_ddot": 0,
        "tle_line1": "1 66339U 25253W   25338.75002315 -.00015266  00000+0 -35923-3 0  9994",
        "tle_line2": "2 66339  43.0006  31.5222 0002030 257.0045  37.5137 15.40671595  5694"
      },
      "geometry": {
        "type": "Point",
        "coordinates": [
          -35.20074214273671,
          -39.975217446693534
        ]
      }
    },
    {
      "type": "Feature",
      "properties": {
        "norad_id": 66340,
        "name": "STARLINK-35218",
        "group": "last-30-days",
        "lat": 2.2470107151008736,
        "lon": 31.147528206839187,
        "alt_km": 413.7179274708742,
        "timestamp": "2025-12-05T04:52:14.140427+00:00",
        "meta_object_name": "STARLINK-35218",
        "meta_object_id": "2025-253X",
        "meta_epoch": "2025-12-04T13:23:53.795328",
        "meta_mean_motion": 15.50615991,
        "meta_eccentricity": 0.0001192,
        "meta_inclination": 42.9998,
        "meta_ra_of_asc_node": 32.5068,
        "meta_arg_of_pericenter": 274.8538,
        "meta_mean_anomaly": 85.2186,
        "meta_ephemeris_type": 0,
        "meta_classification_type": "U",
        "meta_norad_cat_id": 66340,
        "meta_element_set_no": 999,
        "meta_rev_at_epoch": 566,
        "meta_bstar": 0.0027172,
        "meta_mean_motion_dot": 0.00162634,
        "meta_mean_motion_ddot": 0,
        "tle_line1": "1 66340U 25253X   25338.55826152  .00162634  00000+0  27172-2 0  9993",
        "tle_line2": "2 66340  42.9998  32.5068 0001192 274.8538  85.2186 15.50615991  5665"
      },
      "geometry": {
        "type": "Point",
        "coordinates": [
          31.147528206839187,
          2.2470107151008736
        ]
      }
    },
    {
      "type": "Feature",
      "properties": {
        "norad_id": 66341,
        "name": "STARLINK-35522",
        "group": "last-30-days",
        "lat": -29.14387804807172,
        "lon": -7.897271073580028,
        "alt_km": 446.10719459060783,
        "timestamp": "2025-12-05T04:52:14.140439+00:00",
        "meta_object_name": "STARLINK-35522",
        "meta_object_id": "2025-253Y",
        "meta_epoch": "2025-12-04T18:00:02.000160",
        "meta_mean_motion": 15.42571202,
        "meta_eccentricity": 0.0001641,
        "meta_inclination": 43.0006,
        "meta_ra_of_asc_node": 31.469,
        "meta_arg_of_pericenter": 288.2071,
        "meta_mean_anomaly": 29.821,
        "meta_ephemeris_type": 0,
        "meta_classification_type": "U",
        "meta_norad_cat_id": 66341,
        "meta_element_set_no": 999,
        "meta_rev_at_epoch": 574,
        "meta_bstar": -0.053738,
        "meta_mean_motion_dot": -0.02114521,
        "meta_mean_motion_ddot": 0,
        "tle_line1": "1 66341U 25253Y   25338.75002315 -.02114521  00000+0 -53738-1 0  9995",
        "tle_line2": "2 66341  43.0006  31.4690 0001641 288.2071  29.8210 15.42571202  5745"
      },
      "geometry": {
        "type": "Point",
        "coordinates": [
          -7.897271073580028,
          -29.14387804807172
        ]
      }
    },
    {
      "type": "Feature",
      "properties": {
        "norad_id": 66342,
        "name": "STARLINK-35535",
        "group": "last-30-days",
        "lat": -36.12761589108194,
        "lon": -99.40238144255848,
        "alt_km": 446.1009581609451,
        "timestamp": "2025-12-05T04:52:14.140451+00:00",
        "meta_object_name": "STARLINK-35535",
        "meta_object_id": "2025-253Z",
        "meta_epoch": "2025-12-04T18:00:02.000160",
        "meta_mean_motion": 15.40608656,
        "meta_eccentricity": 0.0001674,
        "meta_inclination": 43.0004,
        "meta_ra_of_asc_node": 31.6423,
        "meta_arg_of_pericenter": 253.5187,
        "meta_mean_anomaly": 351.2953,
        "meta_ephemeris_type": 0,
        "meta_classification_type": "U",
        "meta_norad_cat_id": 66342,
        "meta_element_set_no": 999,
        "meta_rev_at_epoch": 564,
        "meta_bstar": 0.0016707,
        "meta_mean_motion_dot": 0.00069915,
        "meta_mean_motion_ddot": 0,
        "tle_line1": "1 66342U 25253Z   25338.75002315  .00069915  00000+0  16707-2 0  9994",
        "tle_line2": "2 66342  43.0004  31.6423 0001674 253.5187 351.2953 15.40608656  5646"
      },
      "geometry": {
        "type": "Point",
        "coordinates": [
          -99.40238144255848,
          -36.12761589108194
        ]
      }
    },
    {
      "type": "Feature",
      "properties": {
        "norad_id": 66343,
        "name": "STARLINK-35467",
        "group": "last-30-days",
        "lat": -15.168296834393633,
        "lon": -133.96448327622596,
        "alt_km": 445.0650443108416,
        "timestamp": "2025-12-05T04:52:14.140463+00:00",
        "meta_object_name": "STARLINK-35467",
        "meta_object_id": "2025-253AA",
        "meta_epoch": "2025-12-04T18:00:02.000160",
        "meta_mean_motion": 15.4060745,
        "meta_eccentricity": 0.0001402,
        "meta_inclination": 43.0005,
        "meta_ra_of_asc_node": 31.7328,
        "meta_arg_of_pericenter": 252.5197,
        "meta_mean_anomaly": 314.9745,
        "meta_ephemeris_type": 0,
        "meta_classification_type": "U",
        "meta_norad_cat_id": 66343,
        "meta_element_set_no": 999,
        "meta_rev_at_epoch": 564,
        "meta_bstar": 0.0016967,
        "meta_mean_motion_dot": 0.00071013,
        "meta_mean_motion_ddot": 0,
        "tle_line1": "1 66343U 25253AA  25338.75002315  .00071013  00000+0  16967-2 0  9995",
        "tle_line2": "2 66343  43.0005  31.7328 0001402 252.5197 314.9745 15.40607450  5648"
      },
      "geometry": {
        "type": "Point",
        "coordinates": [
          -133.96448327622596,
          -15.168296834393633
        ]
      }
    },
    {
      "type": "Feature",
      "properties": {
        "norad_id": 66344,
        "name": "STARLINK-35511",
        "group": "last-30-days",
        "lat": 13.696357246946782,
        "lon": 43.84939192869146,
        "alt_km": 412.9553328635411,
        "timestamp": "2025-12-05T04:52:14.140475+00:00",
        "meta_object_name": "STARLINK-35511",
        "meta_object_id": "2025-253AB",
        "meta_epoch": "2025-12-04T10:13:55.829568",
        "meta_mean_motion": 15.50597049,
        "meta_eccentricity": 0.0001448,
        "meta_inclination": 43.0011,
        "meta_ra_of_asc_node": 33.2328,
        "meta_arg_of_pericenter": 274.0444,
        "meta_mean_anomaly": 86.0251,
        "meta_ephemeris_type": 0,
        "meta_classification_type": "U",
        "meta_norad_cat_id": 66344,
        "meta_element_set_no": 999,
        "meta_rev_at_epoch": 564,
        "meta_bstar": 0.00014218,
        "meta_mean_motion_dot": 8.013e-05,
        "meta_mean_motion_ddot": 0,
        "tle_line1": "1 66344U 25253AB  25338.42634062  .00008013  00000+0  14218-3 0  9998",
        "tle_line2": "2 66344  43.0011  33.2328 0001448 274.0444  86.0251 15.50597049  5649"
      },
      "geometry": {
        "type": "Point",
        "coordinates": [
          43.84939192869146,
          13.696357246946782
        ]
      }
    }
  ]
}